{
  "type": "FeatureCollection",
  "features": [
    {
      "type": "Feature",
      "properties": {
        "norad_id": 43567,
        "name": "GSAT0220 (GALILEO 24)",
        "group": "gnss",
        "lat": -1.1141562724415528,
        "lon": 167.28778010102877,
        "alt_km": 23227.685679179616,
        "timestamp": "2025-12-21T16:47:54.981302+00:00",
        "meta_object_name": "GSAT0220 (GALILEO 24)",
        "meta_object_id": "2018-060D",
        "meta_epoch": "2025-12-19T15:28:13.770912",
        "meta_mean_motion": 1.70475932,
        "meta_eccentricity": 0.000607,
        "meta_inclination": 57.2288,
        "meta_ra_of_asc_node": 346.6359,
        "meta_arg_of_pericenter": 288.3471,
        "meta_mean_anomaly": 71.5983,
        "meta_ephemeris_type": 0,
        "meta_classification_type": "U",
        "meta_norad_cat_id": 43567,
        "meta_element_set_no": 999,
        "meta_rev_at_epoch": 4611,
        "meta_bstar": 0,
        "meta_mean_motion_dot": -7.2e-07,
        "meta_mean_motion_ddot": 0,
        "tle_line1": "1 43567U 18060D   25353.64460383 -.00000072  00000+0  00000+0 0  9990",
        "tle_line2": "2 43567  57.2288 346.6359 0006070 288.3471  71.5983  1.70475932 46114"
      },
      "geometry": {
        "type": "Point",
        "coordinates": [
          167.28778010102877,
          -1.1141562724415528
        ]
      }
    },
    {
      "type": "Feature",
      "properties": {
        "norad_id": 43581,
        "name": "BEIDOU-3 M5 (C23)",
        "group": "gnss",
        "lat": -29.924906281539684,
        "lon": 33.0113892610708,
        "alt_km": 21536.388300779687,
        "timestamp": "2025-12-21T16:47:54.981320+00:00",
        "meta_object_name": "BEIDOU-3 M5 (C23)",
        "meta_object_id": "2018-062A",
        "meta_epoch": "2025-12-20T20:06:28.321920",
        "meta_mean_motion": 1.86228978,
        "meta_eccentricity": 0.00019384,
        "meta_inclination": 54.0899,
        "meta_ra_of_asc_node": 188.3678,
        "meta_arg_of_pericenter": 1.5281,
        "meta_mean_anomaly": 358.5256,
        "meta_ephemeris_type": 0,
        "meta_classification_type": "U",
        "meta_norad_cat_id": 43581,
        "meta_element_set_no": 999,
        "meta_rev_at_epoch": 5031,
        "meta_bstar": 0,
        "meta_mean_motion_dot": 9.5e-07,
        "meta_mean_motion_ddot": 0,
        "tle_line1": "1 43581U 18062A   25354.83782780  .00000095  00000+0  00000+0 0  9992",
        "tle_line2": "2 43581  54.0899 188.3678 0001938   1.5281 358.5256  1.86228978 50311"
      },
      "geometry": {
        "type": "Point",
        "coordinates": [
          33.0113892610708,
          -29.924906281539684
        ]
      }
    },
    {
      "type": "Feature",
      "properties": {
        "norad_id": 43582,
        "name": "BEIDOU-3 M6 (C24)",
        "group": "gnss",
        "lat": -38.441673502003354,
        "lon": 153.19352278744782,
        "alt_km": 21535.936187197905,
        "timestamp": "2025-12-21T16:47:54.981337+00:00",
        "meta_object_name": "BEIDOU-3 M6 (C24)",
        "meta_object_id": "2018-062B",
        "meta_epoch": "2025-12-20T16:49:14.112192",
        "meta_mean_motion": 1.86229946,
        "meta_eccentricity": 0.00078563,
        "meta_inclination": 54.0894,
        "meta_ra_of_asc_node": 188.3615,
        "meta_arg_of_pericenter": 48.1727,
        "meta_mean_anomaly": 311.9483,
        "meta_ephemeris_type": 0,
        "meta_classification_type": "U",
        "meta_norad_cat_id": 43582,
        "meta_element_set_no": 999,
        "meta_rev_at_epoch": 5031,
        "meta_bstar": 0,
        "meta_mean_motion_dot": 9.6e-07,
        "meta_mean_motion_ddot": 0,
        "tle_line1": "1 43582U 18062B   25354.70085778  .00000096  00000+0  00000+0 0  9993",
        "tle_line2": "2 43582  54.0894 188.3615 0007856  48.1727 311.9483  1.86229946 50316"
      },
      "geometry": {
        "type": "Point",
        "coordinates": [
          153.19352278744782,
          -38.441673502003354
        ]
      }
    },
    {
      "type": "Feature",
      "properties": {
        "norad_id": 43602,
        "name": "BEIDOU-3 M12 (C26)",
        "group": "gnss",
        "lat": -6.921583380425298,
        "lon": -177.9692746710093,
        "alt_km": 21512.876096799366,
        "timestamp": "2025-12-21T16:47:54.981355+00:00",
        "meta_object_name": "BEIDOU-3 M12 (C26)",
        "meta_object_id": "2018-067A",
        "meta_epoch": "2025-12-19T13:33:24.239232",
        "meta_mean_motion": 1.86227856,
        "meta_eccentricity": 0.00092481,
        "meta_inclination": 54.1835,
        "meta_ra_of_asc_node": 187.1314,
        "meta_arg_of_pericenter": 41.3287,
        "meta_mean_anomaly": 318.7989,
        "meta_ephemeris_type": 0,
        "meta_classification_type": "U",
        "meta_norad_cat_id": 43602,
        "meta_element_set_no": 999,
        "meta_rev_at_epoch": 4977,
        "meta_bstar": 0,
        "meta_mean_motion_dot": 1.01e-06,
        "meta_mean_motion_ddot": 0,
        "tle_line1": "1 43602U 18067A   25353.56486388  .00000101  00000+0  00000+0 0  9993",
        "tle_line2": "2 43602  54.1835 187.1314 0009248  41.3287 318.7989  1.86227856 49773"
      },
      "geometry": {
        "type": "Point",
        "coordinates": [
          -177.9692746710093,
          -6.921583380425298
        ]
      }
    },
    {
      "type": "Feature",
      "properties": {
        "norad_id": 43603,
        "name": "BEIDOU-3 M11 (C25)",
        "group": "gnss",
        "lat": -53.24011827246146,
        "lon": 82.36531267844869,
        "alt_km": 21545.523405966702,
        "timestamp": "2025-12-21T16:47:54.981372+00:00",
        "meta_object_name": "BEIDOU-3 M11 (C25)",
        "meta_object_id": "2018-067B",
        "meta_epoch": "2025-12-20T18:33:33.170976",
        "meta_mean_motion": 1.86227367,
        "meta_eccentricity": 0.0005646,
        "meta_inclination": 54.1805,
        "meta_ra_of_asc_node": 187.0544,
        "meta_arg_of_pericenter": 37.4026,
        "meta_mean_anomaly": 322.6873,
        "meta_ephemeris_type": 0,
        "meta_classification_type": "U",
        "meta_norad_cat_id": 43603,
        "meta_element_set_no": 999,
        "meta_rev_at_epoch": 4982,
        "meta_bstar": 0,
        "meta_mean_motion_dot": 9.5e-07,
        "meta_mean_motion_ddot": 0,
        "tle_line1": "1 43603U 18067B   25354.77330059  .00000095  00000+0  00000+0 0  9993",
        "tle_line2": "2 43603  54.1805 187.0544 0005646  37.4026 322.6873  1.86227367 49829"
      },
      "geometry": {
        "type": "Point",
        "coordinates": [
          82.36531267844869,
          -53.24011827246146
        ]
      }
    },
    {
      "type": "Feature",
      "properties": {
        "norad_id": 43622,
        "name": "BEIDOU-3 M13 (C32)",
        "group": "gnss",
        "lat": -51.40089227393118,
        "lon": 12.492911856006593,
        "alt_km": 21516.5833076389,
        "timestamp": "2025-12-21T16:47:54.981392+00:00",
        "meta_object_name": "BEIDOU-3 M13 (C32)",
        "meta_object_id": "2018-072A",
        "meta_epoch": "2025-12-21T06:24:05.172192",
        "meta_mean_motion": 1.86231118,
        "meta_eccentricity": 0.0006212,
        "meta_inclination": 56.4663,
        "meta_ra_of_asc_node": 68.5379,
        "meta_arg_of_pericenter": 298.3671,
        "meta_mean_anomaly": 61.6165,
        "meta_ephemeris_type": 0,
        "meta_classification_type": "U",
        "meta_norad_cat_id": 43622,
        "meta_element_set_no": 999,
        "meta_rev_at_epoch": 4934,
        "meta_bstar": 0,
        "meta_mean_motion_dot": -3.6e-07,
        "meta_mean_motion_ddot": 0,
        "tle_line1": "1 43622U 18072A   25355.26672653 -.00000036  00000+0  00000+0 0  9990",
        "tle_line2": "2 43622  56.4663  68.5379 0006212 298.3671  61.6165  1.86231118 49340"
      },
      "geometry": {
        "type": "Point",
        "coordinates": [
          12.492911856006593,
          -51.40089227393118
        ]
      }
    },
    {
      "type": "Feature",
      "properties": {
        "norad_id": 43623,
        "name": "BEIDOU-3 M14 (C33)",
        "group": "gnss",
        "lat": 17.105468302630413,
        "lon": 80.29371328233788,
        "alt_km": 21520.109241690745,
        "timestamp": "2025-12-21T16:47:54.981411+00:00",
        "meta_object_name": "BEIDOU-3 M14 (C33)",
        "meta_object_id": "2018-072B",
        "meta_epoch": "2025-12-20T14:17:08.133792",
        "meta_mean_motion": 1.86231122,
        "meta_eccentricity": 0.00035209,
        "meta_inclination": 56.4674,
        "meta_ra_of_asc_node": 68.5539,
        "meta_arg_of_pericenter": 328.1178,
        "meta_mean_anomaly": 31.9036,
        "meta_ephemeris_type": 0,
        "meta_classification_type": "U",
        "meta_norad_cat_id": 43623,
        "meta_element_set_no": 999,
        "meta_rev_at_epoch": 4932,
        "meta_bstar": 0,
        "meta_mean_motion_dot": -4.2e-07,
        "meta_mean_motion_ddot": 0,
        "tle_line1": "1 43623U 18072B   25354.59523303 -.00000042  00000+0  00000+0 0  9990",
        "tle_line2": "2 43623  56.4674  68.5539 0003520 328.1178  31.9036  1.86231122 49324"
      },
      "geometry": {
        "type": "Point",
        "coordinates": [
          80.29371328233788,
          17.105468302630413
        ]
      }
    }
  ]
}